CCSDS_OMM_VERS = 2.0
CREATION_DATE  = 
ORIGINATOR     = 

OBJECT_NAME    = 2026-023H
OBJECT_ID      = 2026-023H
CENTER_NAME    = EARTH
REF_FRAME      = TEME
TIME_SYSTEM    = UTC
MEAN_ELEMENT_THEORY = SGP/SGP4

EPOCH          = 2026-02-06T19:57:24.636960
MEAN_MOTION    = 15.22318667
ECCENTRICITY   = .0021556
INCLINATION    = 96.6335
RA_OF_ASC_NODE = 116.8614
ARG_OF_PERICENTER = 226.9355
MEAN_ANOMALY   = 133.0079

EPHEMERIS_TYPE = 0
CLASSIFICATION_TYPE = U
NORAD_CAT_ID   = 67681
ELEMENT_SET_NO = 999
REV_AT_EPOCH   = 14
BSTAR          = .28069E-3
MEAN_MOTION_DOT = .6451E-4
MEAN_MOTION_DDOT = 0

CCSDS_OMM_VERS = 2.0
CREATION_DATE  = 
ORIGINATOR     = 

OBJECT_NAME    = 2026-023J
OBJECT_ID      = 2026-023J
CENTER_NAME    = EARTH
REF_FRAME      = TEME
TIME_SYSTEM    = UTC
MEAN_ELEMENT_THEORY = SGP/SGP4

EPOCH          = 2026-02-06T19:57:21.610368
MEAN_MOTION    = 15.22391354
ECCENTRICITY   = .002112
INCLINATION    = 96.6412
RA_OF_ASC_NODE = 116.8562
ARG_OF_PERICENTER = 228.0113
MEAN_ANOMALY   = 131.9327

EPHEMERIS_TYPE = 0
CLASSIFICATION_TYPE = U
NORAD_CAT_ID   = 67682
ELEMENT_SET_NO = 999
REV_AT_EPOCH   = 14
BSTAR          = .28055E-3
MEAN_MOTION_DOT = .646E-4
MEAN_MOTION_DDOT = 0

