2026-023H               
1 67681U 26023H   26037.83153515  .00006451  00000+0  28069-3 0  9993
2 67681  96.6335 116.8614 0021556 226.9355 133.0079 15.22318667   149
2026-023J               
1 67682U 26023J   26037.83150012  .00006460  00000+0  28055-3 0  9998
2 67682  96.6412 116.8562 0021120 228.0113 131.9327 15.22391354   147
